{
  "type": "FeatureCollection",
  "features": [
    {
      "type": "Feature",
      "geometry": {
        "type": "Polygon",
        "coordinates": [
          [
            [
              72.57,
              22.98
            ],
            [
              72.585,
              22.98
            ],
            [
              72.59,
              23.04
            ],
            [
              72.575,
              23.04
            ],
            [
              72.57,
              22.98
            ]
          ]
        ]
      },
      "properties": {
        "hazard": "Sabarmati River Lowland Spillover",
        "risk_level": "high",
        "flood_return_years": 25,
        "river": "Sabarmati",
        "elevation_m": 48.0,
        "is_exclusion": true
      }
    },
    {
      "type": "Feature",
      "geometry": {
        "type": "Polygon",
        "coordinates": [
          [
            [
              72.3,
              21.6
            ],
            [
              72.7,
              21.6
            ],
            [
              72.8,
              21.2
            ],
            [
              72.4,
              21.2
            ],
            [
              72.3,
              21.6
            ]
          ]
        ]
      },
      "properties": {
        "hazard": "Gulf of Khambhat Tidal Inundation Zone",
        "risk_level": "high",
        "flood_return_years": 10,
        "river": "Tidal/Coastal",
        "elevation_m": 8.5,
        "is_exclusion": true
      }
    },
    {
      "type": "Feature",
      "geometry": {
        "type": "Polygon",
        "coordinates": [
          [
            [
              72.74,
              21.15
            ],
            [
              72.8,
              21.15
            ],
            [
              72.82,
              21.19
            ],
            [
              72.76,
              21.19
            ],
            [
              72.74,
              21.15
            ]
          ]
        ]
      },
      "properties": {
        "hazard": "Tapi River Delta Inundation",
        "risk_level": "medium",
        "flood_return_years": 30,
        "river": "Tapi",
        "elevation_m": 14.0,
        "is_exclusion": false
      }
    },
    {
      "type": "Feature",
      "geometry": {
        "type": "Polygon",
        "coordinates": [
          [
            [
              72.95,
              21.72
            ],
            [
              73.2,
              21.72
            ],
            [
              73.2,
              21.8
            ],
            [
              72.95,
              21.8
            ],
            [
              72.95,
              21.72
            ]
          ]
        ]
      },
      "properties": {
        "hazard": "Narmada River Alluvial Floodplain Buffer",
        "risk_level": "medium",
        "flood_return_years": 35,
        "river": "Narmada",
        "elevation_m": 22.0,
        "is_exclusion": false
      }
    },
    {
      "type": "Feature",
      "geometry": {
        "type": "Polygon",
        "coordinates": [
          [
            [
              69.0,
              23.8
            ],
            [
              70.5,
              23.8
            ],
            [
              70.5,
              24.4
            ],
            [
              69.0,
              24.4
            ],
            [
              69.0,
              23.8
            ]
          ]
        ]
      },
      "properties": {
        "hazard": "Great Rann Saline Tidal Inundation",
        "risk_level": "high",
        "flood_return_years": 5,
        "river": "Saline Wetland",
        "elevation_m": 4.0,
        "is_exclusion": true
      }
    },
    {
      "type": "Feature",
      "geometry": {
        "type": "Polygon",
        "coordinates": [
          [
            [
              72.81,
              18.98
            ],
            [
              72.85,
              18.98
            ],
            [
              72.85,
              19.04
            ],
            [
              72.81,
              19.04
            ],
            [
              72.81,
              18.98
            ]
          ]
        ]
      },
      "properties": {
        "hazard": "Mumbai Coastal Regulation Zone & Mithi Basin",
        "risk_level": "high",
        "flood_return_years": 15,
        "river": "Arabian Sea / Mithi",
        "elevation_m": 6.0,
        "is_exclusion": true
      }
    },
    {
      "type": "Feature",
      "geometry": {
        "type": "Polygon",
        "coordinates": [
          [
            [
              77.24,
              28.62
            ],
            [
              77.27,
              28.62
            ],
            [
              77.27,
              28.69
            ],
            [
              77.24,
              28.69
            ],
            [
              77.24,
              28.62
            ]
          ]
        ]
      },
      "properties": {
        "hazard": "Yamuna River Riparian Floodplain (Delhi)",
        "risk_level": "medium",
        "flood_return_years": 20,
        "river": "Yamuna",
        "elevation_m": 208.0,
        "is_exclusion": false
      }
    }
  ]
}