{
  "type": "FeatureCollection",
  "features": [
    {
      "type": "Feature",
      "geometry": {
        "type": "Polygon",
        "coordinates": [
          [
            [
              72.5,
              23.02
            ],
            [
              72.53,
              23.02
            ],
            [
              72.53,
              23.08
            ],
            [
              72.5,
              23.08
            ],
            [
              72.5,
              23.02
            ]
          ]
        ]
      },
      "properties": {
        "zone_name": "SG Highway Commercial Corridor",
        "zone_type": "commercial",
        "area_sq_km": 6.02,
        "building_density": 249,
        "max_floor_area_ratio": 2.7,
        "permitted": true
      }
    },
    {
      "type": "Feature",
      "geometry": {
        "type": "Polygon",
        "coordinates": [
          [
            [
              72.56,
              23.02
            ],
            [
              72.59,
              23.02
            ],
            [
              72.59,
              23.05
            ],
            [
              72.56,
              23.05
            ],
            [
              72.56,
              23.02
            ]
          ]
        ]
      },
      "properties": {
        "zone_name": "Ashram Road Central Business District",
        "zone_type": "commercial",
        "area_sq_km": 5.92,
        "building_density": 227,
        "max_floor_area_ratio": 3.0,
        "permitted": true
      }
    },
    {
      "type": "Feature",
      "geometry": {
        "type": "Polygon",
        "coordinates": [
          [
            [
              72.35,
              22.97
            ],
            [
              72.42,
              22.97
            ],
            [
              72.42,
              23.01
            ],
            [
              72.35,
              23.01
            ],
            [
              72.35,
              22.97
            ]
          ]
        ]
      },
      "properties": {
        "zone_name": "Sanand Industrial Cluster GIDC",
        "zone_type": "industrial",
        "area_sq_km": 7.46,
        "building_density": 337,
        "max_floor_area_ratio": 1.5,
        "permitted": true
      }
    },
    {
      "type": "Feature",
      "geometry": {
        "type": "Polygon",
        "coordinates": [
          [
            [
              72.65,
              23.06
            ],
            [
              72.7,
              23.06
            ],
            [
              72.7,
              23.1
            ],
            [
              72.65,
              23.1
            ],
            [
              72.65,
              23.06
            ]
          ]
        ]
      },
      "properties": {
        "zone_name": "Naroda GIDC Manufacturing Area",
        "zone_type": "industrial",
        "area_sq_km": 4.44,
        "building_density": 337,
        "max_floor_area_ratio": 1.4,
        "permitted": true
      }
    },
    {
      "type": "Feature",
      "geometry": {
        "type": "Polygon",
        "coordinates": [
          [
            [
              72.45,
              22.99
            ],
            [
              72.5,
              22.99
            ],
            [
              72.5,
              23.03
            ],
            [
              72.45,
              23.03
            ],
            [
              72.45,
              22.99
            ]
          ]
        ]
      },
      "properties": {
        "zone_name": "South Bopal Urban Residential Zone",
        "zone_type": "residential",
        "area_sq_km": 7.3,
        "building_density": 270,
        "max_floor_area_ratio": 2.0,
        "permitted": false
      }
    },
    {
      "type": "Feature",
      "geometry": {
        "type": "Polygon",
        "coordinates": [
          [
            [
              72.81,
              21.16
            ],
            [
              72.85,
              21.16
            ],
            [
              72.85,
              21.2
            ],
            [
              72.81,
              21.2
            ],
            [
              72.81,
              21.16
            ]
          ]
        ]
      },
      "properties": {
        "zone_name": "Surat Ring Road Commercial Area",
        "zone_type": "commercial",
        "area_sq_km": 6.95,
        "building_density": 338,
        "max_floor_area_ratio": 2.8,
        "permitted": true
      }
    },
    {
      "type": "Feature",
      "geometry": {
        "type": "Polygon",
        "coordinates": [
          [
            [
              72.62,
              21.1
            ],
            [
              72.68,
              21.1
            ],
            [
              72.68,
              21.15
            ],
            [
              72.62,
              21.15
            ],
            [
              72.62,
              21.1
            ]
          ]
        ]
      },
      "properties": {
        "zone_name": "Hazira Heavy Engineering & Port Zone",
        "zone_type": "industrial",
        "area_sq_km": 6.19,
        "building_density": 265,
        "max_floor_area_ratio": 1.6,
        "permitted": true
      }
    },
    {
      "type": "Feature",
      "geometry": {
        "type": "Polygon",
        "coordinates": [
          [
            [
              73.17,
              22.25
            ],
            [
              73.22,
              22.25
            ],
            [
              73.22,
              22.29
            ],
            [
              73.17,
              22.29
            ],
            [
              73.17,
              22.25
            ]
          ]
        ]
      },
      "properties": {
        "zone_name": "Makarpura GIDC Industrial Corridor",
        "zone_type": "industrial",
        "area_sq_km": 8.71,
        "building_density": 327,
        "max_floor_area_ratio": 1.6,
        "permitted": true
      }
    },
    {
      "type": "Feature",
      "geometry": {
        "type": "Polygon",
        "coordinates": [
          [
            [
              73.45,
              22.48
            ],
            [
              73.5,
              22.48
            ],
            [
              73.5,
              22.52
            ],
            [
              73.45,
              22.52
            ],
            [
              73.45,
              22.48
            ]
          ]
        ]
      },
      "properties": {
        "zone_name": "Halol Automobile & Manufacturing GIDC",
        "zone_type": "industrial",
        "area_sq_km": 3.6,
        "building_density": 203,
        "max_floor_area_ratio": 1.5,
        "permitted": true
      }
    },
    {
      "type": "Feature",
      "geometry": {
        "type": "Polygon",
        "coordinates": [
          [
            [
              70.81,
              22.79
            ],
            [
              70.88,
              22.79
            ],
            [
              70.88,
              22.84
            ],
            [
              70.81,
              22.84
            ],
            [
              70.81,
              22.79
            ]
          ]
        ]
      },
      "properties": {
        "zone_name": "Morbi Ceramic Mega Industrial Zone",
        "zone_type": "industrial",
        "area_sq_km": 4.76,
        "building_density": 120,
        "max_floor_area_ratio": 1.8,
        "permitted": true
      }
    },
    {
      "type": "Feature",
      "geometry": {
        "type": "Polygon",
        "coordinates": [
          [
            [
              72.98,
              21.61
            ],
            [
              73.04,
              21.61
            ],
            [
              73.04,
              21.65
            ],
            [
              72.98,
              21.65
            ],
            [
              72.98,
              21.61
            ]
          ]
        ]
      },
      "properties": {
        "zone_name": "Ankleshwar Chemical & Pharma GIDC",
        "zone_type": "industrial",
        "area_sq_km": 8.37,
        "building_density": 256,
        "max_floor_area_ratio": 1.6,
        "permitted": true
      }
    },
    {
      "type": "Feature",
      "geometry": {
        "type": "Polygon",
        "coordinates": [
          [
            [
              72.55,
              21.69
            ],
            [
              72.62,
              21.69
            ],
            [
              72.62,
              21.74
            ],
            [
              72.55,
              21.74
            ],
            [
              72.55,
              21.69
            ]
          ]
        ]
      },
      "properties": {
        "zone_name": "Dahej PCPIR Petrochemical Complex",
        "zone_type": "industrial",
        "area_sq_km": 3.32,
        "building_density": 247,
        "max_floor_area_ratio": 1.7,
        "permitted": true
      }
    },
    {
      "type": "Feature",
      "geometry": {
        "type": "Polygon",
        "coordinates": [
          [
            [
              72.89,
              20.37
            ],
            [
              72.94,
              20.37
            ],
            [
              72.94,
              20.41
            ],
            [
              72.89,
              20.41
            ],
            [
              72.89,
              20.37
            ]
          ]
        ]
      },
      "properties": {
        "zone_name": "Vapi GIDC Industrial Estate",
        "zone_type": "industrial",
        "area_sq_km": 6.83,
        "building_density": 198,
        "max_floor_area_ratio": 1.6,
        "permitted": true
      }
    },
    {
      "type": "Feature",
      "geometry": {
        "type": "Polygon",
        "coordinates": [
          [
            [
              69.5,
              23.6
            ],
            [
              69.9,
              23.6
            ],
            [
              69.9,
              23.9
            ],
            [
              69.5,
              23.9
            ],
            [
              69.5,
              23.6
            ]
          ]
        ]
      },
      "properties": {
        "zone_name": "Kutch Revenue Wasteland & Renewable Zone",
        "zone_type": "wasteland",
        "area_sq_km": 4.3,
        "building_density": 147,
        "max_floor_area_ratio": 0.5,
        "permitted": false
      }
    },
    {
      "type": "Feature",
      "geometry": {
        "type": "Polygon",
        "coordinates": [
          [
            [
              72.86,
              19.06
            ],
            [
              72.875,
              19.06
            ],
            [
              72.875,
              19.072
            ],
            [
              72.86,
              19.072
            ],
            [
              72.86,
              19.06
            ]
          ]
        ]
      },
      "properties": {
        "zone_name": "Bandra Kurla Complex (BKC), Mumbai",
        "zone_type": "commercial",
        "area_sq_km": 4.38,
        "building_density": 194,
        "max_floor_area_ratio": 3.5,
        "permitted": true
      }
    },
    {
      "type": "Feature",
      "geometry": {
        "type": "Polygon",
        "coordinates": [
          [
            [
              77.08,
              28.49
            ],
            [
              77.098,
              28.49
            ],
            [
              77.098,
              28.502
            ],
            [
              77.08,
              28.502
            ],
            [
              77.08,
              28.49
            ]
          ]
        ]
      },
      "properties": {
        "zone_name": "DLF Cyber City, Gurugram",
        "zone_type": "commercial",
        "area_sq_km": 4.99,
        "building_density": 171,
        "max_floor_area_ratio": 3.2,
        "permitted": true
      }
    },
    {
      "type": "Feature",
      "geometry": {
        "type": "Polygon",
        "coordinates": [
          [
            [
              77.725,
              12.98
            ],
            [
              77.745,
              12.98
            ],
            [
              77.745,
              12.995
            ],
            [
              77.725,
              12.995
            ],
            [
              77.725,
              12.98
            ]
          ]
        ]
      },
      "properties": {
        "zone_name": "Whitefield IT Park (ITPB), Bengaluru",
        "zone_type": "commercial",
        "area_sq_km": 3.0,
        "building_density": 181,
        "max_floor_area_ratio": 2.8,
        "permitted": true
      }
    },
    {
      "type": "Feature",
      "geometry": {
        "type": "Polygon",
        "coordinates": [
          [
            [
              73.725,
              18.585
            ],
            [
              73.75,
              18.585
            ],
            [
              73.75,
              18.6
            ],
            [
              73.725,
              18.6
            ],
            [
              73.725,
              18.585
            ]
          ]
        ]
      },
      "properties": {
        "zone_name": "Hinjawadi Infotech SEZ, Pune",
        "zone_type": "industrial",
        "area_sq_km": 7.95,
        "building_density": 201,
        "max_floor_area_ratio": 2.0,
        "permitted": true
      }
    },
    {
      "type": "Feature",
      "geometry": {
        "type": "Polygon",
        "coordinates": [
          [
            [
              78.365,
              17.435
            ],
            [
              78.388,
              17.435
            ],
            [
              78.388,
              17.452
            ],
            [
              78.365,
              17.452
            ],
            [
              78.365,
              17.435
            ]
          ]
        ]
      },
      "properties": {
        "zone_name": "HITEC City & Gachibowli, Hyderabad",
        "zone_type": "commercial",
        "area_sq_km": 4.67,
        "building_density": 118,
        "max_floor_area_ratio": 3.0,
        "permitted": true
      }
    }
  ]
}