{
  "type": "FeatureCollection",
  "features": [
    {
      "type": "Feature",
      "properties": {
        "id": "wb-kankaria-lake",
        "name": "Kankaria Lake",
        "type": "lake",
        "city": "Ahmedabad",
        "is_exclusion": true,
        "hazard": "Permanent Water Body",
        "disqualification_reason": "Candidate location falls inside Kankaria Lake. Ground construction is physically prohibited."
      },
      "geometry": {
        "type": "Polygon",
        "coordinates": [
          [
            [72.6008, 23.0035],
            [72.5998, 23.0039],
            [72.5990, 23.0044],
            [72.5984, 23.0054],
            [72.5983, 23.0065],
            [72.5986, 23.0075],
            [72.5993, 23.0083],
            [72.6004, 23.0088],
            [72.6015, 23.0089],
            [72.6026, 23.0086],
            [72.6035, 23.0080],
            [72.6041, 23.0067],
            [72.6040, 23.0055],
            [72.6034, 23.0045],
            [72.6022, 23.0037],
            [72.6012, 23.0035],
            [72.6008, 23.0035]
          ]
        ]
      }
    },
    {
      "type": "Feature",
      "properties": {
        "id": "wb-vastrapur-lake",
        "name": "Vastrapur Lake",
        "type": "lake",
        "city": "Ahmedabad",
        "is_exclusion": true,
        "hazard": "Permanent Water Body",
        "disqualification_reason": "Candidate location falls inside Vastrapur Lake basin. Ground construction is physically prohibited."
      },
      "geometry": {
        "type": "Polygon",
        "coordinates": [
          [
            [72.5275, 23.0345],
            [72.5270, 23.0360],
            [72.5280, 23.0375],
            [72.5305, 23.0378],
            [72.5318, 23.0365],
            [72.5312, 23.0348],
            [72.5295, 23.0340],
            [72.5275, 23.0345]
          ]
        ]
      }
    },
    {
      "type": "Feature",
      "properties": {
        "id": "wb-chandola-lake",
        "name": "Chandola Lake",
        "type": "lake",
        "city": "Ahmedabad",
        "is_exclusion": true,
        "hazard": "Permanent Water Body",
        "disqualification_reason": "Candidate location falls inside Chandola Lake. Ground construction is physically prohibited."
      },
      "geometry": {
        "type": "Polygon",
        "coordinates": [
          [
            [72.5850, 22.9810],
            [72.5840, 22.9860],
            [72.5870, 22.9910],
            [72.5950, 22.9900],
            [72.5975, 22.9850],
            [72.5950, 22.9815],
            [72.5890, 22.9805],
            [72.5850, 22.9810]
          ]
        ]
      }
    },
    {
      "type": "Feature",
      "properties": {
        "id": "wb-thol-lake",
        "name": "Thol Lake & Bird Sanctuary",
        "type": "wetland",
        "city": "Ahmedabad / Mehsana",
        "is_exclusion": true,
        "hazard": "Ramsar Wetland & Water Body",
        "disqualification_reason": "Candidate location is within Thol Lake Wetland Sanctuary. Civil construction is strictly prohibited."
      },
      "geometry": {
        "type": "Polygon",
        "coordinates": [
          [
            [72.3950, 23.1350],
            [72.3900, 23.1480],
            [72.4050, 23.1600],
            [72.4220, 23.1550],
            [72.4250, 23.1400],
            [72.4100, 23.1330],
            [72.3950, 23.1350]
          ]
        ]
      }
    },
    {
      "type": "Feature",
      "properties": {
        "id": "wb-sabarmati-river-channel",
        "name": "Sabarmati River Active Water Channel",
        "type": "riverbed",
        "city": "Ahmedabad",
        "is_exclusion": true,
        "hazard": "Active Riverbed Channel",
        "disqualification_reason": "Candidate location falls inside active Sabarmati Riverbed waterway. Permanent building foundations prohibited."
      },
      "geometry": {
        "type": "Polygon",
        "coordinates": [
          [
            [72.5700, 22.9800],
            [72.5730, 23.0000],
            [72.5740, 23.0300],
            [72.5790, 23.0600],
            [72.5880, 23.1000],
            [72.5930, 23.1400],
            [72.5990, 23.1400],
            [72.5930, 23.1000],
            [72.5840, 23.0600],
            [72.5790, 23.0300],
            [72.5780, 23.0000],
            [72.5750, 22.9800],
            [72.5700, 22.9800]
          ]
        ]
      }
    },
    {
      "type": "Feature",
      "properties": {
        "id": "wb-sursagar-lake",
        "name": "Sursagar Lake",
        "type": "lake",
        "city": "Vadodara",
        "is_exclusion": true,
        "hazard": "Historic Urban Lake",
        "disqualification_reason": "Candidate location is within Sursagar Lake basin, Vadodara. Ground construction is physically prohibited."
      },
      "geometry": {
        "type": "Polygon",
        "coordinates": [
          [
            [73.2015, 22.2985],
            [73.2010, 22.3015],
            [73.2045, 22.3020],
            [73.2052, 22.2990],
            [73.2015, 22.2985]
          ]
        ]
      }
    },
    {
      "type": "Feature",
      "properties": {
        "id": "wb-ajwa-reservoir",
        "name": "Ajwa Water Reservoir",
        "type": "reservoir",
        "city": "Vadodara",
        "is_exclusion": true,
        "hazard": "Municipal Water Reservoir",
        "disqualification_reason": "Candidate location is inside Ajwa Dam Reservoir. Civil development prohibited."
      },
      "geometry": {
        "type": "Polygon",
        "coordinates": [
          [
            [73.3800, 22.3400],
            [73.3750, 22.3600],
            [73.3900, 22.3750],
            [73.4150, 22.3700],
            [73.4200, 22.3500],
            [73.4050, 22.3400],
            [73.3800, 22.3400]
          ]
        ]
      }
    },
    {
      "type": "Feature",
      "properties": {
        "id": "wb-vishwamitri-channel",
        "name": "Vishwamitri River Corridor",
        "type": "riverbed",
        "city": "Vadodara",
        "is_exclusion": true,
        "hazard": "River Ecological Corridor",
        "disqualification_reason": "Candidate location is in the active Vishwamitri River channel, Vadodara. Ground construction prohibited."
      },
      "geometry": {
        "type": "Polygon",
        "coordinates": [
          [
            [73.1850, 22.3000],
            [73.1880, 22.3150],
            [73.1950, 22.3250],
            [73.1990, 22.3250],
            [73.1910, 22.3150],
            [73.1880, 22.3000],
            [73.1850, 22.3000]
          ]
        ]
      }
    },
    {
      "type": "Feature",
      "properties": {
        "id": "wb-gopi-talav",
        "name": "Gopi Talav Lake",
        "type": "lake",
        "city": "Surat",
        "is_exclusion": true,
        "hazard": "Urban Water Body",
        "disqualification_reason": "Candidate location is inside Gopi Talav lake, Surat. Construction prohibited."
      },
      "geometry": {
        "type": "Polygon",
        "coordinates": [
          [
            [72.8285, 21.1890],
            [72.8280, 21.1925],
            [72.8335, 21.1930],
            [72.8340, 21.1895],
            [72.8285, 21.1890]
          ]
        ]
      }
    },
    {
      "type": "Feature",
      "properties": {
        "id": "wb-tapi-river-channel",
        "name": "Tapi River Water Channel",
        "type": "riverbed",
        "city": "Surat",
        "is_exclusion": true,
        "hazard": "Active Tidal River Corridor",
        "disqualification_reason": "Candidate location is inside the Tapi River tidal water channel. Construction prohibited."
      },
      "geometry": {
        "type": "Polygon",
        "coordinates": [
          [
            [72.7400, 21.1550],
            [72.7700, 21.1850],
            [72.8200, 21.2150],
            [72.8600, 21.2250],
            [72.8650, 21.2150],
            [72.8220, 21.2050],
            [72.7750, 21.1750],
            [72.7450, 21.1450],
            [72.7400, 21.1550]
          ]
        ]
      }
    },
    {
      "type": "Feature",
      "properties": {
        "id": "wb-aji-dam-reservoir",
        "name": "Aji Dam Reservoir",
        "type": "reservoir",
        "city": "Rajkot",
        "is_exclusion": true,
        "hazard": "Drinking Water Reservoir",
        "disqualification_reason": "Candidate location falls within Aji Dam Reservoir, Rajkot. Construction prohibited."
      },
      "geometry": {
        "type": "Polygon",
        "coordinates": [
          [
            [70.8250, 22.2350],
            [70.8200, 22.2500],
            [70.8350, 22.2600],
            [70.8550, 22.2550],
            [70.8500, 22.2400],
            [70.8350, 22.2350],
            [70.8250, 22.2350]
          ]
        ]
      }
    },
    {
      "type": "Feature",
      "properties": {
        "id": "wb-nyari-dam-reservoir",
        "name": "Nyari Dam Reservoir",
        "type": "reservoir",
        "city": "Rajkot",
        "is_exclusion": true,
        "hazard": "Municipal Water Reservoir",
        "disqualification_reason": "Candidate location is within Nyari Dam Reservoir, Rajkot. Construction prohibited."
      },
      "geometry": {
        "type": "Polygon",
        "coordinates": [
          [
            [70.7100, 22.2600],
            [70.7050, 22.2750],
            [70.7200, 22.2900],
            [70.7450, 22.2850],
            [70.7400, 22.2650],
            [70.7200, 22.2600],
            [70.7100, 22.2600]
          ]
        ]
      }
    },
    {
      "type": "Feature",
      "properties": {
        "id": "wb-lakhota-lake",
        "name": "Lakhota Lake (Ranmal Talav)",
        "type": "lake",
        "city": "Jamnagar",
        "is_exclusion": true,
        "hazard": "Historic Lake & Wetland",
        "disqualification_reason": "Candidate location is inside Lakhota Lake, Jamnagar. Construction prohibited."
      },
      "geometry": {
        "type": "Polygon",
        "coordinates": [
          [
            [70.0655, 22.4685],
            [70.0650, 22.4735],
            [70.0715, 22.4740],
            [70.0720, 22.4690],
            [70.0655, 22.4685]
          ]
        ]
      }
    },
    {
      "type": "Feature",
      "properties": {
        "id": "wb-hamirsar-lake",
        "name": "Hamirsar Lake",
        "type": "lake",
        "city": "Bhuj",
        "is_exclusion": true,
        "hazard": "Civic Freshwater Lake",
        "disqualification_reason": "Candidate location is inside Hamirsar Lake, Bhuj. Construction prohibited."
      },
      "geometry": {
        "type": "Polygon",
        "coordinates": [
          [
            [69.6585, 23.2455],
            [69.6580, 23.2545],
            [69.6695, 23.2550],
            [69.6700, 23.2460],
            [69.6585, 23.2455]
          ]
        ]
      }
    },
    {
      "type": "Feature",
      "properties": {
        "id": "wb-sardar-sarovar",
        "name": "Sardar Sarovar Narmada Reservoir",
        "type": "reservoir",
        "city": "Kevadia / Narmada",
        "is_exclusion": true,
        "hazard": "Mega Hydroelectric Dam Reservoir",
        "disqualification_reason": "Candidate location is within the Sardar Sarovar Reservoir basin. Construction prohibited."
      },
      "geometry": {
        "type": "Polygon",
        "coordinates": [
          [
            [73.7400, 21.8200],
            [73.7300, 21.8500],
            [73.7700, 21.8700],
            [73.8100, 21.8600],
            [73.8200, 21.8300],
            [73.7800, 21.8200],
            [73.7400, 21.8200]
          ]
        ]
      }
    },
    {
      "type": "Feature",
      "properties": {
        "id": "wb-gulf-khambhat-deepwater",
        "name": "Gulf of Khambhat Marine Waters",
        "type": "ocean",
        "city": "Coastal Gujarat",
        "is_exclusion": true,
        "hazard": "Marine / Tidal Waters",
        "disqualification_reason": "Candidate location is in the marine open waters of the Gulf of Khambhat. Terrestrial civil construction prohibited."
      },
      "geometry": {
        "type": "Polygon",
        "coordinates": [
          [
            [72.1000, 21.5000],
            [72.4000, 21.9000],
            [72.5200, 21.7000],
            [72.6000, 20.8000],
            [72.4000, 20.7000],
            [72.1000, 21.0000],
            [72.1000, 21.5000]
          ]
        ]
      }
    },
    {
      "type": "Feature",
      "properties": {
        "id": "wb-arabian-sea-west",
        "name": "Arabian Sea Coastal Waters",
        "type": "ocean",
        "city": "Coastal Gujarat",
        "is_exclusion": true,
        "hazard": "Open Ocean Waters",
        "disqualification_reason": "Candidate location is in open waters of the Arabian Sea. Terrestrial civil construction prohibited."
      },
      "geometry": {
        "type": "Polygon",
        "coordinates": [
          [
            [68.1000, 22.5000],
            [69.0000, 22.8000],
            [69.2000, 22.4000],
            [68.8000, 21.5000],
            [69.5000, 20.5000],
            [68.1000, 20.5000],
            [68.1000, 22.5000]
          ]
        ]
      }
    }
  ]
}
